OBJECT_NAME,OBJECT_ID,EPOCH,MEAN_MOTION,ECCENTRICITY,INCLINATION,RA_OF_ASC_NODE,ARG_OF_PERICENTER,MEAN_ANOMALY,EPHEMERIS_TYPE,CLASSIFICATION_TYPE,NORAD_CAT_ID,ELEMENT_SET_NO,REV_AT_EPOCH,BSTAR,MEAN_MOTION_DOT,MEAN_MOTION_DDOT
STARLINK-37629,2026-127A,2026-07-08T04:19:07.976352,15.75306526,.0000944,53.1593,158.0831,79.9000,280.2127,0,U,69443,999,471,.95387E-3,.14861E-2,0
STARLINK-37509,2026-127B,2026-07-07T08:25:21.686880,15.75311217,.00015807,53.1589,162.1522,83.2622,276.8578,0,U,69444,999,458,.16379746E-2,.259099E-2,0
STARLINK-37641,2026-127C,2026-07-07T08:05:16.641024,15.75238508,.00009041,53.1570,162.0604,69.3445,290.7672,0,U,69445,999,458,.95549317E-3,.148419E-2,0
STARLINK-37522,2026-127D,2026-07-07T12:58:57.964224,15.75256110,.00009767,53.1592,161.2041,145.1483,214.9602,0,U,69446,999,461,.9906124E-3,.15412E-2,0
STARLINK-37640,2026-127E,2026-07-07T12:19:45.388992,15.75269608,.00008693,53.1603,161.0271,63.3382,296.7727,0,U,69447,999,461,.44156985E-3,.67681E-3,0
STARLINK-37572,2026-127F,2026-07-07T12:46:22.401408,15.75265222,.00012351,53.1589,161.1477,68.9562,291.1590,0,U,69448,999,461,.7518722E-3,.116344E-2,0
STARLINK-37643,2026-127G,2026-07-08T01:03:16.653600,15.77939876,.0010414,53.1586,158.6527,231.9747,128.0335,0,U,69449,999,469,.13158E-1,.2605679E-1,0
STARLINK-37601,2026-127H,2026-07-08T04:00:01.998720,15.75311931,.0001045,53.1588,158.0426,86.3086,250.0499,0,U,69450,999,602,-.10729E-2,-.162492E-2,0
STARLINK-37578,2026-127J,2026-07-07T12:32:49.048224,15.75286342,.00008988,53.1563,161.0804,125.3585,234.7520,0,U,69451,999,461,.15168371E-2,.239059E-2,0
STARLINK-37577,2026-127K,2026-07-07T04:36:24.707232,15.75244638,.00015931,53.1608,162.5686,53.1091,307.0076,0,U,69452,999,456,.96440527E-3,.149876E-2,0
STARLINK-37500,2026-127L,2026-07-07T09:24:02.344320,15.75251591,.00011167,53.1563,161.6823,100.1671,259.9476,0,U,69453,999,459,.11949312E-2,.18673E-2,0
STARLINK-37575,2026-127M,2026-07-07T10:35:47.616576,15.75259275,.00011501,53.1597,161.2784,135.7413,224.3699,0,U,69454,999,460,.1332809E-2,.208974E-2,0
STARLINK-37642,2026-127N,2026-07-07T12:33:17.815104,15.75245465,.00004687,53.1570,161.0831,93.0801,267.0273,0,U,69455,999,461,.11859537E-2,.185243E-2,0
STARLINK-37513,2026-127P,2026-07-08T00:00:02.000160,15.75298860,.000113,53.1593,158.0744,88.9432,48.0234,0,U,69456,999,599,-.77493E-3,-.11809E-2,0
STARLINK-37563,2026-127Q,2026-07-08T04:58:40.433088,15.75384163,.0001176,53.1590,157.5234,155.4954,204.6122,0,U,69457,999,472,.12492E-2,.196609E-2,0
STARLINK-37565,2026-127R,2026-07-08T04:45:09.804960,15.75324176,.0001762,53.1578,157.4605,118.6891,241.4307,0,U,69458,999,472,.12749E-2,.200228E-2,0
STARLINK-37498,2026-127S,2026-07-07T10:54:55.664352,15.75258177,.00010232,53.1569,161.3641,92.1902,267.9235,0,U,69459,999,460,.13091254E-2,.205146E-2,0
STARLINK-37384,2026-127T,2026-07-07T07:32:36.155040,15.75296523,.00017279,53.1595,161.9053,66.9437,293.1765,0,U,69460,999,458,.13433226E-2,.211023E-2,0
STARLINK-37707,2026-127U,2026-07-08T00:11:31.949088,15.75290513,.0001277,53.1581,158.4086,123.0851,237.0292,0,U,69461,999,469,.83685E-3,.129918E-2,0
STARLINK-37525,2026-127V,2026-07-07T11:53:36.596544,15.75254531,.00010115,53.1573,160.8983,127.4464,232.6648,0,U,69462,999,461,.95930991E-3,.149131E-2,0
STARLINK-37526,2026-127W,2026-07-08T04:32:31.999200,15.75357090,.0001236,53.1567,157.3956,123.2762,236.8377,0,U,69463,999,472,.10237E-2,.160102E-2,0
STARLINK-37574,2026-127X,2026-07-07T11:54:05.076576,15.75294861,.00016511,53.1574,160.8984,55.6685,304.4491,0,U,69464,999,461,.87253196E-3,.135606E-2,0
STARLINK-37535,2026-127Y,2026-07-06T23:36:10.773792,15.75260762,.00015172,53.1566,163.3879,52.9413,307.1745,0,U,69465,999,453,.92244188E-3,.143316E-2,0
STARLINK-37583,2026-127Z,2026-07-07T12:39:41.720544,15.75270235,.00011181,53.1585,160.3716,87.1389,272.9759,0,U,69466,999,462,.88780905E-3,.137878E-2,0
STARLINK-37546,2026-127AA,2026-07-07T11:41:00.688992,15.75259490,.00008424,53.1562,160.8359,107.0907,253.0206,0,U,69467,999,461,.49509131E-3,.76004E-3,0
STARLINK-37532,2026-127AB,2026-07-07T09:17:21.835392,15.75251754,.00011629,53.1597,160.9095,99.3883,260.7268,0,U,69468,999,460,.13152736E-2,.206077E-2,0
STARLINK-37708,2026-127AC,2026-07-07T20:48:42.943680,15.75225143,.0001289,53.1559,158.9398,115.3199,244.7955,0,U,69469,999,467,.10074E-2,.156576E-2,0
STARLINK-37686,2026-127AD,2026-07-07T13:05:50.792928,15.75456831,.00015336,53.1579,160.4890,24.0535,336.0557,0,U,69470,999,462,.14893777E-2,.236397E-2,0
STARLINK-37451,2026-127AE,2026-07-07T07:07:27.124608,15.80922130,.00012396,53.1578,161.0455,69.4775,290.6380,0,U,69471,999,459,.70135291E-3,.140314E-2,0
DTC TEST OBJECT A,2026-128A,2026-07-08T01:17:04.807104,15.53450137,.0010858,55.0005,208.7216,352.5965,7.4907,0,U,69472,999,447,.11185E-3,.6753E-4,0
